[{"OBJECT_NAME":"STARLINK-34514","OBJECT_ID":"2025-129E","EPOCH":"2026-03-09T23:22:55.702848","MEAN_MOTION":14.98342959,"ECCENTRICITY":0.00028603,"INCLINATION":70.0033,"RA_OF_ASC_NODE":73.5951,"ARG_OF_PERICENTER":249.8497,"MEAN_ANOMALY":110.2354,"EPHEMERIS_TYPE":0,"CLASSIFICATION_TYPE":"U","NORAD_CAT_ID":64416,"ELEMENT_SET_NO":999,"REV_AT_EPOCH":4133,"BSTAR":0.00028360567,"MEAN_MOTION_DOT":3.294e-5,"MEAN_MOTION_DDOT":0},{"OBJECT_NAME":"FENGYUN 1C DEB","OBJECT_ID":"1999-025DDJ","EPOCH":"2026-03-01T18:34:40.606176","MEAN_MOTION":14.6204627,"ECCENTRICITY":0.02210591,"INCLINATION":98.62,"RA_OF_ASC_NODE":179.8313,"ARG_OF_PERICENTER":250.664,"MEAN_ANOMALY":107.0539,"EPHEMERIS_TYPE":0,"CLASSIFICATION_TYPE":"U","NORAD_CAT_ID":33625,"ELEMENT_SET_NO":999,"REV_AT_EPOCH":62545,"BSTAR":0.0012246157,"MEAN_MOTION_DOT":8.674e-5,"MEAN_MOTION_DDOT":0}]
